NORAD_CAT_ID,OBJECT_NAME,OBJECT_TYPE,EPOCH,MEAN_MOTION,ECCENTRICITY,INCLINATION,RA_OF_ASC_NODE,ARG_OF_PERICENTER,MEAN_ANOMALY,BSTAR,MEAN_MOTION_DOT,MEAN_MOTION_DDOT,TLE_LINE0,TLE_LINE1,TLE_LINE2,SEMIMAJOR_AXIS,PERIOD,APOGEE,PERIGEE,DECAYED
51888.0,STARLINK-3536,PAYLOAD,2022-07-28 14:00:01,15.08871178,0.000225,53.2157,165.3127,57.3399,203.7301,-0.0042648,-0.00067587,0.0,0 STARLINK-3536,1 51888U 22022AN  22209.58334491 -.00067587  00000-0 -42648-2 0  9991,2 51888  53.2157 165.3127 0002250  57.3399 203.7301 15.08871178  1301,6917.785,95.436,541.207,538.094,0.0
51888.0,STARLINK-3536,PAYLOAD,2022-07-28 22:00:00,15.08839356,0.0002237,53.2159,163.816,61.1097,211.5597,0.000136,1.877e-05,0.0,0 STARLINK-3536,1 51888U 22022AN  22209.91667824  .00001877  00000-0  13600-3 0  9992,2 51888  53.2159 163.8160 0002237  61.1097 211.5597 15.08839356  1302,6917.882,95.438,541.295,538.2,0.0
51888.0,STARLINK-3536,PAYLOAD,2022-07-29 00:00:00,15.08851022,0.0002272,53.216,163.4425,59.3992,306.1656,-0.0015581,-0.00025008,0.0,0 STARLINK-3536,1 51888U 22022AN  22210.00001157 -.00025008  00000-0 -15581-2 0  9998,2 51888  53.2160 163.4425 0002272  59.3992 306.1656 15.08851022 24021,6917.847,95.437,541.283,538.14,0.0
51888.0,STARLINK-3536,PAYLOAD,2022-07-29 14:00:01,15.08848749,0.0002311,53.2163,160.8237,57.869,237.9826,-0.0013189999999999,-0.00021225,0.0,0 STARLINK-3536,1 51888U 22022AN  22210.58334491 -.00021225  00000-0 -13190-2 0  9992,2 51888  53.2163 160.8237 0002311  57.8690 237.9826 15.08848749  1306,6917.854,95.437,541.317,538.12,0.0
51888.0,STARLINK-3536,PAYLOAD,2022-07-29 22:00:00,15.08853066,0.0002340999999999,53.2166,159.3271,61.6793,245.764,-0.00024316,-4.158e-05,0.0,0 STARLINK-3536,1 51888U 22022AN  22210.91667824 -.00004158  00000-0 -24316-3 0  9997,2 51888  53.2166 159.3271 0002341  61.6793 245.7640 15.08853066 24157,6917.84,95.437,541.325,538.086,0.0
51888.0,STARLINK-3536,PAYLOAD,2022-07-30 14:00:01,15.08837095,0.0002326,53.217,156.3347,58.535,272.1218,-0.0016243,-0.00026045,0.0,0 STARLINK-3536,1 51888U 22022AN  22211.58334491 -.00026045  00000-0 -16243-2 0  9990,2 51888  53.2170 156.3347 0002326  58.5350 272.1218 15.08837095  1301,6917.889,95.438,541.363,538.145,0.0
51888.0,STARLINK-3536,PAYLOAD,2022-07-30 22:00:00,15.08841432,0.0002329,53.2173,154.8382,61.3024,280.9307,-0.00059102,-9.683e-05,0.0,0 STARLINK-3536,1 51888U 22022AN  22211.91667824 -.00009683  00000-0 -59102-3 0  9997,2 51888  53.2173 154.8382 0002329  61.3024 280.9307 15.08841432  1305,6917.876,95.437,541.352,538.13,0.0
51888.0,STARLINK-3536,PAYLOAD,2022-07-31 06:00:02,15.08812755,0.0002489,53.2173,153.3435,56.7964,297.0958,0.0024945,0.00039607,0.0,0 STARLINK-3536,1 51888U 22022AN  22212.25002315  .00039607  00000-0  24945-2 0  9996,2 51888  53.2173 153.3435 0002489  56.7964 297.0958 15.08812755 24353,6917.964,95.439,541.5509999999998,538.107,0.0
51888.0,STARLINK-3536,PAYLOAD,2022-07-31 14:00:01,15.08836889,0.0002365,53.2175,151.8457,60.4421,304.9703,-0.00026678,-4.531e-05,0.0,0 STARLINK-3536,1 51888U 22022AN  22212.58334491 -.00004531  00000-0 -26678-3 0  9991,2 51888  53.2175 151.8457 0002365  60.4421 304.9703 15.08836889  1305,6917.89,95.438,541.391,538.119,0.0
51888.0,STARLINK-3536,PAYLOAD,2022-07-31 22:00:00,15.08855842,0.0002387999999999,53.2177,150.3496,62.7435,314.2536,-0.0010015,-0.00016199,0.0,0 STARLINK-3536,1 51888U 22022AN  22212.91667824 -.00016199  00000-0 -10015-2 0  9997,2 51888  53.2177 150.3496 0002388  62.7435 314.2536 15.08855842 24469,6917.831999999999,95.437,541.349,538.045,0.0
51888.0,STARLINK-3536,PAYLOAD,2022-08-01 14:00:01,15.0885456,0.0002336999999999,53.2175,147.3567,62.5613,337.6479,-0.0013427,-0.00021603,0.0,0 STARLINK-3536,1 51888U 22022AN  22213.58334491 -.00021603  00000-0 -13427-2 0  9998,2 51888  53.2175 147.3567 0002337  62.5613 337.6479 15.08854560  1301,6917.8359999999975,95.437,541.318,538.0840000000002,0.0
51888.0,STARLINK-3536,PAYLOAD,2022-08-01 22:00:00,15.08851042,0.0002313,53.2175,145.8608,63.7279,348.0826,-0.001959,-0.00031341,0.0,0 STARLINK-3536,1 51888U 22022AN  22213.91667824 -.00031341  00000-0 -19590-2 0  9991,2 51888  53.2175 145.8608 0002313  63.7279 348.0826 15.08851042  1309,6917.847,95.437,541.312,538.112,0.0
51888.0,STARLINK-3536,PAYLOAD,2022-08-02 14:00:01,15.08824661,0.0002274,53.2171,142.8678,64.4853,10.5068,0.00094675,0.00014805,0.0,0 STARLINK-3536,1 51888U 22022AN  22214.58334491  .00014805  00000-0  94675-3 0  9998,2 51888  53.2171 142.8678 0002274  64.4853  10.5068 15.08824661 24717,6917.927,95.439,541.365,538.219,0.0
51888.0,STARLINK-3536,PAYLOAD,2022-08-03 14:00:01,15.08839213,0.0002275,53.2164,138.3787,66.7431,43.0353,0.000495,7.598e-05,0.0,0 STARLINK-3536,1 51888U 22022AN  22215.58334491  .00007598  00000-0  49500-3 0  9997,2 51888  53.2164 138.3787 0002275  66.7431  43.0353 15.08839213  1305,6917.8830000000025,95.438,541.322,538.174,0.0
51888.0,STARLINK-3536,PAYLOAD,2022-08-03 22:00:01,15.08855096,0.0002304,53.2163,136.8829,67.2185,54.2196,-0.0029985,-0.00047715,0.0,0 STARLINK-3536,1 51888U 22022AN  22215.91668981 -.00047715  00000-0 -29985-2 0  9999,2 51888  53.2163 136.8829 0002304  67.2185  54.2196 15.08855096  1305,6917.834,95.437,541.293,538.105,0.0
51888.0,STARLINK-3536,PAYLOAD,2022-08-04 14:00:01,15.088162900000002,0.0002244,53.2158,133.8895,67.7112,76.8435,0.0018702999999999,0.00029584,0.0,0 STARLINK-3536,1 51888U 22022AN  22216.58334491  .00029584  00000-0  18703-2 0  9997,2 51888  53.2158 133.8895 0002244  67.7112  76.8435 15.08816290 25010,6917.953,95.439,541.37,538.265,0.0
51888.0,STARLINK-3536,PAYLOAD,2022-08-04 22:00:00,15.08853873,0.0002358,53.2159,132.3938,68.1982,87.9334,-0.00162,-0.00025989,0.0,0 STARLINK-3536,1 51888U 22022AN  22216.91667824 -.00025989  00000-0 -16200-2 0  9990,2 51888  53.2159 132.3938 0002358  68.1982  87.9334 15.08853873  1304,6917.8380000000025,95.437,541.3340000000002,538.072,0.0
51888.0,STARLINK-3536,PAYLOAD,2022-08-05 14:00:01,15.08825541,0.0002241,53.2158,129.4,68.2203,111.1822,0.0002386,3.510000000000001e-05,0.0,0 STARLINK-3536,1 51888U 22022AN  22217.58335648  .00003510  00000-0  23860-3 0  9995,2 51888  53.2158 129.4000 0002241  68.2203 111.1822 15.08825541  1301,6917.925,95.438,541.34,538.239,0.0
51888.0,STARLINK-3536,PAYLOAD,2022-08-05 22:00:00,15.088418099999998,0.0002333,53.216,127.9045,67.791,123.1259,-0.0014387,-0.00023114,0.0,0 STARLINK-3536,1 51888U 22022AN  22217.91667824 -.00023114  00000-0 -14387-2 0  9993,2 51888  53.2160 127.9045 0002333  67.7910 123.1259 15.08841810  1301,6917.875,95.437,541.354,538.126,0.0
51888.0,STARLINK-3536,PAYLOAD,2022-08-06 14:00:01,15.08817792,0.0002296999999999,53.2163,124.9108,68.8912,145.2069,0.0026093,0.00041459,0.0,0 STARLINK-3536,1 51888U 22022AN  22218.58334491  .00041459  00000-0  26093-2 0  9995,2 51888  53.2163 124.9108 0002297  68.8912 145.2069 15.08817792  1300,6917.948,95.439,541.4019999999998,538.224,0.0
51888.0,STARLINK-3536,PAYLOAD,2022-08-06 21:00:14,15.08837627,0.0002371,53.2184,123.6022,66.2697,293.8543,3.9918e-05,3.47e-06,0.0,0 STARLINK-3536,1 51888U 22022AN  22218.87517351  .00000347  00000-0  39918-4 0  9998,2 51888  53.2184 123.6022 0002371  66.2697 293.8543 15.08837627 25367,6917.888000000001,95.438,541.393,538.112,0.0
51888.0,STARLINK-3536,PAYLOAD,2022-08-07 14:00:01,15.08807742,0.0002264,53.217,120.4216,69.6194,179.2742,0.002934,0.00046676,0.0,0 STARLINK-3536,1 51888U 22022AN  22219.58334491  .00046676  00000-0  29340-2 0  9990,2 51888  53.2170 120.4216 0002264  69.6194 179.2742 15.08807742  1303,6917.979,95.44,541.41,538.278,0.0
51888.0,STARLINK-3536,PAYLOAD,2022-08-07 20:51:01,15.08837146,0.0002351,53.2179,119.141,69.4314,290.6931,6.596e-05,7.61e-06,0.0,0 STARLINK-3536,1 51888U 22022AN  22219.86877201  .00000761  00000-0  65960-4 0  9997,2 51888  53.2179 119.1410 0002351  69.4314 290.6931 15.08837146 25510,6917.889,95.438,541.381,538.128,0.0
51888.0,STARLINK-3536,PAYLOAD,2022-08-07 22:00:00,15.08849405,0.0002368,53.2172,118.9265,68.2827,192.1872,-0.0010902999999999,-0.00017604,0.0,0 STARLINK-3536,1 51888U 22022AN  22219.91667824 -.00017604  00000-0 -10903-2 0  9992,2 51888  53.2172 118.9265 0002368  68.2827 192.1872 15.08849405 25513,6917.852,95.437,541.355,538.078,0.0
51888.0,STARLINK-3536,PAYLOAD,2022-08-08 14:00:01,15.08847753,0.0002197,53.2176,115.9326,71.4276,212.3383,0.00084624,0.00013208,0.0,0 STARLINK-3536,1 51888U 22022AN  22220.58335648  .00013208  00000-0  84624-3 0  9999,2 51888  53.2176 115.9326 0002197  71.4276 212.3383 15.08847753 25613,6917.857,95.437,541.242,538.202,0.0
51888.0,STARLINK-3536,PAYLOAD,2022-08-08 22:00:00,15.08875977,0.0002184,53.2178,114.4377,68.3434,226.9652,-0.0032363,-0.00051478,0.0,0 STARLINK-3536,1 51888U 22022AN  22220.91667824 -.00051478  00000-0 -32363-2 0  9995,2 51888  53.2178 114.4377 0002184  68.3434 226.9652 15.08875977  1301,6917.77,95.435,541.146,538.125,0.0
51888.0,STARLINK-3536,PAYLOAD,2022-08-09 06:00:00,15.08851594,0.0002088,53.2175,112.9417,64.3667,242.5498,-0.0027309,-0.00043503,0.0,0 STARLINK-3536,1 51888U 22022AN  22221.25001157 -.00043503  00000-0 -27309-2 0  9998,2 51888  53.2175 112.9417 0002088  64.3667 242.5498 15.08851594 25715,6917.845,95.437,541.154,538.266,0.0
51888.0,STARLINK-3536,PAYLOAD,2022-08-09 14:00:01,15.08784119,0.0001918,53.2178,111.4439,70.9585,247.5585,0.0035329,0.00056302,0.0,0 STARLINK-3536,1 51888U 22022AN  22221.58334491  .00056302  00000-0  35329-2 0  9994,2 51888  53.2178 111.4439 0001918  70.9585 247.5585 15.08784119  1308,6918.051,95.441,541.243,538.589,0.0
51888.0,STARLINK-3536,PAYLOAD,2022-08-09 22:00:00,15.08826317,0.0002009999999999,53.2178,109.9491,67.5936,262.4737,-0.00092357,-0.00014952,0.0,0 STARLINK-3536,1 51888U 22022AN  22221.91667824 -.00014952  00000-0 -92357-3 0  9992,2 51888  53.2178 109.9491 0002010  67.5936 262.4737 15.08826317  1306,6917.922,95.438,541.178,538.3969999999998,0.0
